[{"OBJECT_NAME":"STARLINK-4524","OBJECT_ID":"2022-097J","EPOCH":"2026-03-09T13:17:58.105536","MEAN_MOTION":15.08841358,"ECCENTRICITY":0.0001439,"INCLINATION":53.2169,"RA_OF_ASC_NODE":124.7319,"ARG_OF_PERICENTER":92.6949,"MEAN_ANOMALY":267.4208,"EPHEMERIS_TYPE":0,"CLASSIFICATION_TYPE":"U","NORAD_CAT_ID":53396,"ELEMENT_SET_NO":999,"REV_AT_EPOCH":19849,"BSTAR":1.402e-5,"MEAN_MOTION_DOT":-6.5e-7,"MEAN_MOTION_DDOT":0},{"OBJECT_NAME":"DIAMANT R\/B","OBJECT_ID":"1966-013B","EPOCH":"2026-03-09T06:54:47.653920","MEAN_MOTION":12.93422759,"ECCENTRICITY":0.10366862,"INCLINATION":34.0694,"RA_OF_ASC_NODE":174.684,"ARG_OF_PERICENTER":274.635,"MEAN_ANOMALY":73.6812,"EPHEMERIS_TYPE":0,"CLASSIFICATION_TYPE":"U","NORAD_CAT_ID":2017,"ELEMENT_SET_NO":999,"REV_AT_EPOCH":75683,"BSTAR":0.00075378297,"MEAN_MOTION_DOT":2.953e-5,"MEAN_MOTION_DDOT":0}]
